SAR-LUPE 2              
1 31797U 07030A   26178.21870427  .00037743  00000+0  63538-3 0  9993
2 31797  98.1051 283.9052 0002606 180.6022 179.5225 15.51627961 58495
SAPPHIRE                
1 39088U 13009C   26178.20080470  .00000109  00000+0  53227-4 0  9998
2 39088  98.4263 357.4189 0010473 214.0539 145.9976 14.35243192698017
PRAETORIAN SDA_602      
1 65565U 25203A   26176.91435568  .00000104  00000+0  82306-4 0  9999
2 65565  81.3029   2.6841 0006264 162.2891 197.8485 13.84278827 39903
PRAETORIAN SDA_603      
1 65566U 25203B   26178.02788965  .00000184  00000+0  15515-3 0  9991
2 65566  81.3039   1.5746 0009850 161.1084 199.0440 13.83906133 40064
PRAETORIAN SDA_604      
1 65567U 25203C   26177.98135780  .00000087  00000+0  68923-4 0  9991
2 65567  81.3052   2.0457 0005814 164.9477 195.1853 13.83048532 40030
PRAETORIAN SDA_605      
1 65568U 25203D   26178.01628123  .00000053  00000+0  37724-4 0  9993
2 65568  81.3018   1.6669 0008627 156.9661 203.1883 13.83434938 40058
PRAETORIAN SDA_606      
1 65569U 25203E   26178.00053000  .00000042  00000+0  27885-4 0  9994
2 65569  81.3052   1.9105 0006481 159.5417 200.6000 13.83198570 40040
PRAETORIAN SDA_607      
1 65570U 25203F   26178.00083985  .00000200  00000+0  16868-3 0  9995
2 65570  81.3040   1.5548 0009183 161.0576 199.0924 13.84285421 40063
PRAETORIAN SDA_608      
1 65571U 25203G   26178.19845983  .00000058  00000+0  41955-4 0  9997
2 65571  81.3005   1.5378 0006339 163.6336 196.5026 13.83817503 40075
PRAETORIAN SDA_609      
1 65572U 25203H   26178.20053204  .00000157  00000+0  12983-3 0  9995
2 65572  81.3049   1.5173 0007260 158.3550 201.7915 13.84209752 40089
PRAETORIAN SDA_610      
1 65573U 25203J   26178.03393727  .00000080  00000+0  61646-4 0  9990
2 65573  81.3006   1.6490 0007092 163.6762 196.4624 13.83768465 40057
PRAETORIAN SDA_611      
1 65574U 25203K   26178.03800069  .00000172  00000+0  14600-3 0  9992
2 65574  81.3005   1.8185 0005878 167.1841 192.9465 13.83309914 40040
PRAETORIAN SDA_612      
1 65575U 25203L   26177.79860335  .00000164  00000+0  13482-3 0  9995
2 65575  81.3029   1.6023 0009629 161.1403 199.0113 13.85039752 40042
PRAETORIAN SDA_613      
1 65576U 25203M   26178.04861845  .00000070  00000+0  53598-4 0  9991
2 65576  81.2998   1.8127 0006106 157.7653 202.3769 13.82765969 40047
PRAETORIAN SDA_614      
1 65577U 25203N   26178.00635334  .00000059  00000+0  41723-4 0  9994
2 65577  81.3013   1.4896 0007558 157.5103 202.6387 13.84778014 40075
PRAETORIAN SDA_615      
1 65578U 25203P   26178.20247247  .00000246  00000+0  20924-3 0  9996
2 65578  81.3024   1.2778 0009475 158.3857 201.7701 13.84437117 40098
PRAETORIAN SDA_616      
1 65579U 25203Q   26177.96517663  .00000231  00000+0  19961-3 0  9994
2 65579  81.3063   2.0369 0005801 165.9908 194.1410 13.83268503 40033
PRAETORIAN SDA_617      
1 65580U 25203R   26178.20462934  .00000054  00000+0  38335-4 0  9994
2 65580  81.3035   1.6459 0007831 157.4072 202.7431 13.83150571 40070
PRAETORIAN SDA_618      
1 65581U 25203S   26177.44424983  .00000028  00000+0  14181-4 0  9996
2 65581  81.3021   1.9070 0010122 162.7241 197.4262 13.84669977 39999
PRAETORIAN SDA_619      
1 65582U 25203T   26178.20900907  .00000222  00000+0  18944-3 0  9993
2 65582  81.3047   1.5106 0008613 158.6095 201.5423 13.83806477 40712
PRAETORIAN SDA_620      
1 65583U 25203U   26178.02141403  .00000199  00000+0  16995-3 0  9999
2 65583  81.3030   1.7065 0008039 155.0438 205.1108 13.83619023 40051
PRAETORIAN SDA_621      
1 65584U 25203V   26177.99390036  .00000073  00000+0  55035-4 0  9993
2 65584  81.3021   1.6462 0007883 152.8846 207.2724 13.83802158 40056
PRAETORIAN SDA_601      
1 65585U 25203W   26178.04135647  .00000079  00000+0  61286-4 0  9997
2 65585  81.3041   1.9097 0005798 169.1868 190.9413 13.83168774 40045
VICTUS HAZE PUMA        
1 69646U 26142A   26178.21707209  .00004207  00000+0  19340-3 0  9990
2 69646  97.4481  75.7268 0021050 291.4986  68.4005 15.20723192  1194
