OBJECT_NAME,OBJECT_ID,EPOCH,MEAN_MOTION,ECCENTRICITY,INCLINATION,RA_OF_ASC_NODE,ARG_OF_PERICENTER,MEAN_ANOMALY,EPHEMERIS_TYPE,CLASSIFICATION_TYPE,NORAD_CAT_ID,ELEMENT_SET_NO,REV_AT_EPOCH,BSTAR,MEAN_MOTION_DOT,MEAN_MOTION_DDOT
SAR-LUPE 2,2007-030A,2026-06-27T05:14:56.048928,15.51627961,.0002606,98.1051,283.9052,180.6022,179.5225,0,U,31797,999,5849,.63538E-3,.37743E-3,0
SAPPHIRE,2013-009C,2026-06-27T04:49:09.526080,14.35243192,.0010473,98.4263,357.4189,214.0539,145.9976,0,U,39088,999,69801,.53227E-4,.109E-5,0
PRAETORIAN SDA_602,2025-203A,2026-06-25T21:56:40.330752,13.84278827,.00062643,81.3029,2.6841,162.2891,197.8485,0,U,65565,999,3990,.82305867E-4,.104E-5,0
PRAETORIAN SDA_603,2025-203B,2026-06-27T00:40:09.665760,13.83906133,.000985,81.3039,1.5746,161.1084,199.0440,0,U,65566,999,4006,.15515E-3,.184E-5,0
PRAETORIAN SDA_604,2025-203C,2026-06-26T23:33:09.313920,13.83048532,.0005814,81.3052,2.0457,164.9477,195.1853,0,U,65567,999,4003,.68923E-4,.87E-6,0
PRAETORIAN SDA_605,2025-203D,2026-06-27T00:23:26.698272,13.83434938,.0008627,81.3018,1.6669,156.9661,203.1883,0,U,65568,999,4005,.37724E-4,.53E-6,0
PRAETORIAN SDA_606,2025-203E,2026-06-27T00:00:45.792000,13.83198570,.0006481,81.3052,1.9105,159.5417,200.6000,0,U,65569,999,4004,.27885E-4,.42E-6,0
PRAETORIAN SDA_607,2025-203F,2026-06-27T00:01:12.563040,13.84285421,.0009183,81.3040,1.5548,161.0576,199.0924,0,U,65570,999,4006,.16868E-3,.2E-5,0
PRAETORIAN SDA_608,2025-203G,2026-06-27T04:45:46.929312,13.83817503,.0006339,81.3005,1.5378,163.6336,196.5026,0,U,65571,999,4007,.41955E-4,.58E-6,0
PRAETORIAN SDA_609,2025-203H,2026-06-27T04:48:45.968256,13.84209752,.000726,81.3049,1.5173,158.3550,201.7915,0,U,65572,999,4008,.12983E-3,.157E-5,0
PRAETORIAN SDA_610,2025-203J,2026-06-27T00:48:52.180128,13.83768465,.0007092,81.3006,1.6490,163.6762,196.4624,0,U,65573,999,4005,.61646E-4,.8E-6,0
PRAETORIAN SDA_611,2025-203K,2026-06-27T00:54:43.259616,13.83309914,.0005878,81.3005,1.8185,167.1841,192.9465,0,U,65574,999,4004,.146E-3,.172E-5,0
PRAETORIAN SDA_612,2025-203L,2026-06-26T19:09:59.329440,13.85039752,.00096291,81.3029,1.6023,161.1403,199.0113,0,U,65575,999,4004,.13481602E-3,.164E-5,0
PRAETORIAN SDA_613,2025-203M,2026-06-27T01:10:00.634080,13.82765969,.0006106,81.2998,1.8127,157.7653,202.3769,0,U,65576,999,4004,.53598E-4,.7E-6,0
PRAETORIAN SDA_614,2025-203N,2026-06-27T00:09:08.928576,13.84778014,.0007558,81.3013,1.4896,157.5103,202.6387,0,U,65577,999,4007,.41723E-4,.59E-6,0
PRAETORIAN SDA_615,2025-203P,2026-06-27T04:51:33.621408,13.84437117,.0009475,81.3024,1.2778,158.3857,201.7701,0,U,65578,999,4009,.20924E-3,.246E-5,0
PRAETORIAN SDA_616,2025-203Q,2026-06-26T23:09:51.260832,13.83268503,.0005801,81.3063,2.0369,165.9908,194.1410,0,U,65579,999,4003,.19961E-3,.231E-5,0
PRAETORIAN SDA_617,2025-203R,2026-06-27T04:54:39.974976,13.83150571,.0007831,81.3035,1.6459,157.4072,202.7431,0,U,65580,999,4007,.38335E-4,.54E-6,0
PRAETORIAN SDA_618,2025-203S,2026-06-26T10:39:43.185312,13.84669977,.0010122,81.3021,1.9070,162.7241,197.4262,0,U,65581,999,3999,.14181E-4,.28E-6,0
PRAETORIAN SDA_619,2025-203T,2026-06-27T05:00:58.383648,13.83806477,.0008613,81.3047,1.5106,158.6095,201.5423,0,U,65582,999,4071,.18944E-3,.222E-5,0
PRAETORIAN SDA_620,2025-203U,2026-06-27T00:30:50.172192,13.83619023,.0008039,81.3030,1.7065,155.0438,205.1108,0,U,65583,999,4005,.16995E-3,.199E-5,0
PRAETORIAN SDA_621,2025-203V,2026-06-26T23:51:12.991104,13.83802158,.0007883,81.3021,1.6462,152.8846,207.2724,0,U,65584,999,4005,.55035E-4,.73E-6,0
PRAETORIAN SDA_601,2025-203W,2026-06-27T00:59:33.199008,13.83168774,.0005798,81.3041,1.9097,169.1868,190.9413,0,U,65585,999,4004,.61286E-4,.79E-6,0
VICTUS HAZE PUMA,2026-142A,2026-06-27T05:12:35.028576,15.20723192,.002105,97.4481,75.7268,291.4986,68.4005,0,U,69646,999,119,.1934E-3,.4207E-4,0
